[{"OBJECT_NAME":"STARLINK-31747","OBJECT_ID":"2024-076A","EPOCH":"2026-03-05T13:27:57.332736","MEAN_MOTION":15.27578268,"ECCENTRICITY":0.0001204,"INCLINATION":43.0026,"RA_OF_ASC_NODE":21.7341,"ARG_OF_PERICENTER":271.559,"MEAN_ANOMALY":88.5124,"EPHEMERIS_TYPE":0,"CLASSIFICATION_TYPE":"U","NORAD_CAT_ID":59564,"ELEMENT_SET_NO":999,"REV_AT_EPOCH":10598,"BSTAR":5.9188e-5,"MEAN_MOTION_DOT":1.367e-5,"MEAN_MOTION_DDOT":0},{"OBJECT_NAME":"STARLINK-31388","OBJECT_ID":"2024-076B","EPOCH":"2026-03-05T06:23:12.635808","MEAN_MOTION":15.27575555,"ECCENTRICITY":9.35e-5,"INCLINATION":43.0041,"RA_OF_ASC_NODE":34.2206,"ARG_OF_PERICENTER":295.3278,"MEAN_ANOMALY":64.7477,"EPHEMERIS_TYPE":0,"CLASSIFICATION_TYPE":"U","NORAD_CAT_ID":59565,"ELEMENT_SET_NO":999,"REV_AT_EPOCH":10582,"BSTAR":-7.2689e-5,"MEAN_MOTION_DOT":-2.261e-5,"MEAN_MOTION_DDOT":0},{"OBJECT_NAME":"STARLINK-31332","OBJECT_ID":"2024-076C","EPOCH":"2026-03-05T15:00:02.428704","MEAN_MOTION":15.27585827,"ECCENTRICITY":7.93e-5,"INCLINATION":43.007,"RA_OF_ASC_NODE":31.7298,"ARG_OF_PERICENTER":283.7658,"MEAN_ANOMALY":76.3105,"EPHEMERIS_TYPE":0,"CLASSIFICATION_TYPE":"U","NORAD_CAT_ID":59566,"ELEMENT_SET_NO":999,"REV_AT_EPOCH":10588,"BSTAR":3.9515e-5,"MEAN_MOTION_DOT":8.26e-6,"MEAN_MOTION_DDOT":0},{"OBJECT_NAME":"STARLINK-31689","OBJECT_ID":"2024-076D","EPOCH":"2026-03-05T06:14:38.612832","MEAN_MOTION":15.27572712,"ECCENTRICITY":0.0001593,"INCLINATION":43.004,"RA_OF_ASC_NODE":30.697,"ARG_OF_PERICENTER":253.4035,"MEAN_ANOMALY":106.6642,"EPHEMERIS_TYPE":0,"CLASSIFICATION_TYPE":"U","NORAD_CAT_ID":59567,"ELEMENT_SET_NO":999,"REV_AT_EPOCH":10586,"BSTAR":3.2572e-5,"MEAN_MOTION_DOT":6.34e-6,"MEAN_MOTION_DDOT":0},{"OBJECT_NAME":"STARLINK-31471","OBJECT_ID":"2024-076E","EPOCH":"2026-03-05T07:18:29.771136","MEAN_MOTION":15.27581204,"ECCENTRICITY":0.0001097,"INCLINATION":43.0066,"RA_OF_ASC_NODE":33.6247,"ARG_OF_PERICENTER":250.8551,"MEAN_ANOMALY":109.2182,"EPHEMERIS_TYPE":0,"CLASSIFICATION_TYPE":"U","NORAD_CAT_ID":59568,"ELEMENT_SET_NO":999,"REV_AT_EPOCH":10574,"BSTAR":-1.3176e-5,"MEAN_MOTION_DOT":-6.25e-6,"MEAN_MOTION_DDOT":0},{"OBJECT_NAME":"STARLINK-31470","OBJECT_ID":"2024-076F","EPOCH":"2026-03-05T13:56:10.711392","MEAN_MOTION":15.27576979,"ECCENTRICITY":0.0001542,"INCLINATION":43.0022,"RA_OF_ASC_NODE":28.8053,"ARG_OF_PERICENTER":283.9437,"MEAN_ANOMALY":76.1243,"EPHEMERIS_TYPE":0,"CLASSIFICATION_TYPE":"U","NORAD_CAT_ID":59569,"ELEMENT_SET_NO":999,"REV_AT_EPOCH":10582,"BSTAR":-9.9481e-5,"MEAN_MOTION_DOT":-2.998e-5,"MEAN_MOTION_DDOT":0},{"OBJECT_NAME":"STARLINK-31587","OBJECT_ID":"2024-076G","EPOCH":"2026-03-05T00:01:00.917184","MEAN_MOTION":15.27577727,"ECCENTRICITY":0.00011586,"INCLINATION":43.0013,"RA_OF_ASC_NODE":35.6465,"ARG_OF_PERICENTER":256.5584,"MEAN_ANOMALY":103.5139,"EPHEMERIS_TYPE":0,"CLASSIFICATION_TYPE":"U","NORAD_CAT_ID":59570,"ELEMENT_SET_NO":999,"REV_AT_EPOCH":10580,"BSTAR":1.3886467e-5,"MEAN_MOTION_DOT":1.2e-6,"MEAN_MOTION_DDOT":0},{"OBJECT_NAME":"STARLINK-31606","OBJECT_ID":"2024-076H","EPOCH":"2026-03-05T22:00:01.999584","MEAN_MOTION":15.27562636,"ECCENTRICITY":0.00014129,"INCLINATION":43.0037,"RA_OF_ASC_NODE":29.8978,"ARG_OF_PERICENTER":266.1833,"MEAN_ANOMALY":337.5676,"EPHEMERIS_TYPE":0,"CLASSIFICATION_TYPE":"U","NORAD_CAT_ID":59571,"ELEMENT_SET_NO":999,"REV_AT_EPOCH":575,"BSTAR":0.00092408207,"MEAN_MOTION_DOT":0.0002524,"MEAN_MOTION_DDOT":0},{"OBJECT_NAME":"STARLINK-31666","OBJECT_ID":"2024-076J","EPOCH":"2026-03-05T07:30:58.595616","MEAN_MOTION":15.27579156,"ECCENTRICITY":9.27e-5,"INCLINATION":43.0027,"RA_OF_ASC_NODE":26.7393,"ARG_OF_PERICENTER":270.3511,"MEAN_ANOMALY":89.7234,"EPHEMERIS_TYPE":0,"CLASSIFICATION_TYPE":"U","NORAD_CAT_ID":59572,"ELEMENT_SET_NO":999,"REV_AT_EPOCH":10591,"BSTAR":4.0605e-5,"MEAN_MOTION_DOT":8.56e-6,"MEAN_MOTION_DDOT":0},{"OBJECT_NAME":"STARLINK-31683","OBJECT_ID":"2024-076K","EPOCH":"2026-03-05T15:11:08.240928","MEAN_MOTION":15.27575976,"ECCENTRICITY":0.0001787,"INCLINATION":43.0071,"RA_OF_ASC_NODE":31.7857,"ARG_OF_PERICENTER":261.0726,"MEAN_ANOMALY":98.9924,"EPHEMERIS_TYPE":0,"CLASSIFICATION_TYPE":"U","NORAD_CAT_ID":59573,"ELEMENT_SET_NO":999,"REV_AT_EPOCH":10588,"BSTAR":4.4801e-5,"MEAN_MOTION_DOT":9.7e-6,"MEAN_MOTION_DDOT":0},{"OBJECT_NAME":"STARLINK-31751","OBJECT_ID":"2024-076L","EPOCH":"2026-03-05T06:34:17.736096","MEAN_MOTION":15.27580518,"ECCENTRICITY":0.0001155,"INCLINATION":43,"RA_OF_ASC_NODE":34.2699,"ARG_OF_PERICENTER":277.4927,"MEAN_ANOMALY":82.5793,"EPHEMERIS_TYPE":0,"CLASSIFICATION_TYPE":"U","NORAD_CAT_ID":59574,"ELEMENT_SET_NO":999,"REV_AT_EPOCH":10582,"BSTAR":-0.00012459,"MEAN_MOTION_DOT":-3.689e-5,"MEAN_MOTION_DDOT":0},{"OBJECT_NAME":"STARLINK-31510","OBJECT_ID":"2024-076M","EPOCH":"2026-03-04T23:52:28.134048","MEAN_MOTION":15.27572309,"ECCENTRICITY":0.00010175,"INCLINATION":43.0027,"RA_OF_ASC_NODE":32.151,"ARG_OF_PERICENTER":259.4588,"MEAN_ANOMALY":100.6149,"EPHEMERIS_TYPE":0,"CLASSIFICATION_TYPE":"U","NORAD_CAT_ID":59575,"ELEMENT_SET_NO":999,"REV_AT_EPOCH":10582,"BSTAR":9.988306e-6,"MEAN_MOTION_DOT":1.3e-7,"MEAN_MOTION_DDOT":0},{"OBJECT_NAME":"STARLINK-31663","OBJECT_ID":"2024-076N","EPOCH":"2026-03-05T14:19:32.174688","MEAN_MOTION":15.27573243,"ECCENTRICITY":0.0001327,"INCLINATION":43.0034,"RA_OF_ASC_NODE":32.3787,"ARG_OF_PERICENTER":265.7224,"MEAN_ANOMALY":94.3476,"EPHEMERIS_TYPE":0,"CLASSIFICATION_TYPE":"U","NORAD_CAT_ID":59576,"ELEMENT_SET_NO":999,"REV_AT_EPOCH":10587,"BSTAR":-5.5707e-5,"MEAN_MOTION_DOT":-1.794e-5,"MEAN_MOTION_DDOT":0},{"OBJECT_NAME":"STARLINK-31692","OBJECT_ID":"2024-076P","EPOCH":"2026-03-05T07:44:23.116128","MEAN_MOTION":15.27578014,"ECCENTRICITY":0.0001383,"INCLINATION":43.0009,"RA_OF_ASC_NODE":33.7343,"ARG_OF_PERICENTER":263.7686,"MEAN_ANOMALY":96.3008,"EPHEMERIS_TYPE":0,"CLASSIFICATION_TYPE":"U","NORAD_CAT_ID":59577,"ELEMENT_SET_NO":999,"REV_AT_EPOCH":10583,"BSTAR":4.9269e-5,"MEAN_MOTION_DOT":1.094e-5,"MEAN_MOTION_DDOT":0},{"OBJECT_NAME":"STARLINK-31685","OBJECT_ID":"2024-076Q","EPOCH":"2026-03-05T06:54:26.878176","MEAN_MOTION":15.27568583,"ECCENTRICITY":0.0001021,"INCLINATION":43.0042,"RA_OF_ASC_NODE":33.492,"ARG_OF_PERICENTER":252.3224,"MEAN_ANOMALY":107.7516,"EPHEMERIS_TYPE":0,"CLASSIFICATION_TYPE":"U","NORAD_CAT_ID":59578,"ELEMENT_SET_NO":999,"REV_AT_EPOCH":10583,"BSTAR":-2.8411e-5,"MEAN_MOTION_DOT":-1.043e-5,"MEAN_MOTION_DDOT":0},{"OBJECT_NAME":"STARLINK-31686","OBJECT_ID":"2024-076R","EPOCH":"2026-03-05T06:59:59.261568","MEAN_MOTION":15.27573776,"ECCENTRICITY":0.0001225,"INCLINATION":43.0056,"RA_OF_ASC_NODE":33.5226,"ARG_OF_PERICENTER":229.366,"MEAN_ANOMALY":130.7085,"EPHEMERIS_TYPE":0,"CLASSIFICATION_TYPE":"U","NORAD_CAT_ID":59579,"ELEMENT_SET_NO":999,"REV_AT_EPOCH":10583,"BSTAR":-4.2901e-5,"MEAN_MOTION_DOT":-1.442e-5,"MEAN_MOTION_DDOT":0},{"OBJECT_NAME":"STARLINK-31668","OBJECT_ID":"2024-076S","EPOCH":"2026-03-05T06:43:20.386848","MEAN_MOTION":15.27570253,"ECCENTRICITY":0.0001177,"INCLINATION":43.005,"RA_OF_ASC_NODE":33.4418,"ARG_OF_PERICENTER":288.5562,"MEAN_ANOMALY":71.5162,"EPHEMERIS_TYPE":0,"CLASSIFICATION_TYPE":"U","NORAD_CAT_ID":59580,"ELEMENT_SET_NO":999,"REV_AT_EPOCH":10583,"BSTAR":-4.0417e-5,"MEAN_MOTION_DOT":-1.374e-5,"MEAN_MOTION_DDOT":0}]
