STARLINK-31747          
1 59564U 24076A   26064.56108024  .00001367  00000+0  59188-4 0  9993
2 59564  43.0026  21.7341 0001204 271.5590  88.5124 15.27578268105982
STARLINK-31388          
1 59565U 24076B   26064.26611847 -.00002261  00000+0 -72689-4 0  9990
2 59565  43.0041  34.2206 0000935 295.3278  64.7477 15.27575555105822
STARLINK-31332          
1 59566U 24076C   26064.62502811  .00000826  00000+0  39515-4 0  9995
2 59566  43.0070  31.7298 0000793 283.7658  76.3105 15.27585827105889
STARLINK-31689          
1 59567U 24076D   26064.26016913  .00000634  00000+0  32572-4 0  9992
2 59567  43.0040  30.6970 0001593 253.4035 106.6642 15.27572712105864
STARLINK-31471          
1 59568U 24076E   26064.30451124 -.00000625  00000+0 -13176-4 0  9996
2 59568  43.0066  33.6247 0001097 250.8551 109.2182 15.27581204105747
STARLINK-31470          
1 59569U 24076F   26064.58067953 -.00002998  00000+0 -99481-4 0  9998
2 59569  43.0022  28.8053 0001542 283.9437  76.1243 15.27576979105828
STARLINK-31587          
1 59570U 24076G   26064.00070506  .00000120  00000+0  13886-4 0  9993
2 59570  43.0013  35.6465 0001158 256.5584 103.5139 15.27577727105804
STARLINK-31606          
1 59571U 24076H   26064.91668981  .00025240  00000+0  92408-3 0  9990
2 59571  43.0037  29.8978 0001412 266.1833 337.5676 15.27562636  5753
STARLINK-31666          
1 59572U 24076J   26064.31317819  .00000856  00000+0  40605-4 0  9995
2 59572  43.0027  26.7393 0000927 270.3511  89.7234 15.27579156105910
STARLINK-31683          
1 59573U 24076K   26064.63273427  .00000970  00000+0  44801-4 0  9996
2 59573  43.0071  31.7857 0001787 261.0726  98.9924 15.27575976105881
STARLINK-31751          
1 59574U 24076L   26064.27381639 -.00003689  00000+0 -12459-3 0  9997
2 59574  43.0000  34.2699 0001155 277.4927  82.5793 15.27580518105824
STARLINK-31510          
1 59575U 24076M   26063.99477007  .00000013  00000+0  99883-5 0  9995
2 59575  43.0027  32.1510 0001017 259.4588 100.6149 15.27572309105829
STARLINK-31663          
1 59576U 24076N   26064.59690017 -.00001794  00000+0 -55707-4 0  9996
2 59576  43.0034  32.3787 0001327 265.7224  94.3476 15.27573243105872
STARLINK-31692          
1 59577U 24076P   26064.32248977  .00001094  00000+0  49269-4 0  9999
2 59577  43.0009  33.7343 0001383 263.7686  96.3008 15.27578014105830
STARLINK-31685          
1 59578U 24076Q   26064.28781109 -.00001043  00000+0 -28411-4 0  9996
2 59578  43.0042  33.4920 0001021 252.3224 107.7516 15.27568583105838
STARLINK-31686          
1 59579U 24076R   26064.29165812 -.00001442  00000+0 -42901-4 0  9998
2 59579  43.0056  33.5226 0001225 229.3660 130.7085 15.27573776105835
STARLINK-31668          
1 59580U 24076S   26064.28009707 -.00001374  00000+0 -40417-4 0  9993
2 59580  43.0050  33.4418 0001177 288.5562  71.5162 15.27570253105832
